<?xml version="1.0" encoding="UTF-8"?>
<ndm xmlns:xsi="http://www.w3.org/2001/XMLSchema-instance" xsi:noNamespaceSchemaLocation="https://sanaregistry.org/r/ndmxml_unqualified/ndmxml-2.0.0-master-2.0.xsd">
<omm id="CCSDS_OMM_VERS" version="2.0">
<header><CREATION_DATE/><ORIGINATOR/></header><body><segment><metadata><OBJECT_NAME>IRIDIUM 36</OBJECT_NAME><OBJECT_ID>1997-056C</OBJECT_ID><CENTER_NAME>EARTH</CENTER_NAME><REF_FRAME>TEME</REF_FRAME><TIME_SYSTEM>UTC</TIME_SYSTEM><MEAN_ELEMENT_THEORY>SGP4</MEAN_ELEMENT_THEORY></metadata><data><meanElements><EPOCH>2024-11-20T19:08:20.286528</EPOCH><MEAN_MOTION>14.37235782</MEAN_MOTION><ECCENTRICITY>.0002294</ECCENTRICITY><INCLINATION>86.3957</INCLINATION><RA_OF_ASC_NODE>260.4896</RA_OF_ASC_NODE><ARG_OF_PERICENTER>78.9253</ARG_OF_PERICENTER><MEAN_ANOMALY>281.2202</MEAN_ANOMALY></meanElements><tleParameters><EPHEMERIS_TYPE>0</EPHEMERIS_TYPE><CLASSIFICATION_TYPE>U</CLASSIFICATION_TYPE><NORAD_CAT_ID>24967</NORAD_CAT_ID><ELEMENT_SET_NO>999</ELEMENT_SET_NO><REV_AT_EPOCH>42228</REV_AT_EPOCH><BSTAR>.29101E-3</BSTAR><MEAN_MOTION_DOT>.886E-5</MEAN_MOTION_DOT><MEAN_MOTION_DDOT>0</MEAN_MOTION_DDOT></tleParameters></data></segment></body></omm>
<omm id="CCSDS_OMM_VERS" version="2.0">
<header><CREATION_DATE/><ORIGINATOR/></header><body><segment><metadata><OBJECT_NAME>IRIDIUM 39</OBJECT_NAME><OBJECT_ID>1997-069D</OBJECT_ID><CENTER_NAME>EARTH</CENTER_NAME><REF_FRAME>TEME</REF_FRAME><TIME_SYSTEM>UTC</TIME_SYSTEM><MEAN_ELEMENT_THEORY>SGP4</MEAN_ELEMENT_THEORY></metadata><data><meanElements><EPOCH>2024-11-20T21:58:33.731616</EPOCH><MEAN_MOTION>14.48628910</MEAN_MOTION><ECCENTRICITY>.0015744</ECCENTRICITY><INCLINATION>86.3877</INCLINATION><RA_OF_ASC_NODE>300.4361</RA_OF_ASC_NODE><ARG_OF_PERICENTER>284.7438</ARG_OF_PERICENTER><MEAN_ANOMALY>75.2020</MEAN_ANOMALY></meanElements><tleParameters><EPHEMERIS_TYPE>0</EPHEMERIS_TYPE><CLASSIFICATION_TYPE>U</CLASSIFICATION_TYPE><NORAD_CAT_ID>25042</NORAD_CAT_ID><ELEMENT_SET_NO>999</ELEMENT_SET_NO><REV_AT_EPOCH>41880</REV_AT_EPOCH><BSTAR>.34419E-3</BSTAR><MEAN_MOTION_DOT>.1316E-4</MEAN_MOTION_DOT><MEAN_MOTION_DDOT>0</MEAN_MOTION_DDOT></tleParameters></data></segment></body></omm>
<omm id="CCSDS_OMM_VERS" version="2.0">
<header><CREATION_DATE/><ORIGINATOR/></header><body><segment><metadata><OBJECT_NAME>IRIDIUM 38</OBJECT_NAME><OBJECT_ID>1997-069E</OBJECT_ID><CENTER_NAME>EARTH</CENTER_NAME><REF_FRAME>TEME</REF_FRAME><TIME_SYSTEM>UTC</TIME_SYSTEM><MEAN_ELEMENT_THEORY>SGP4</MEAN_ELEMENT_THEORY></metadata><data><meanElements><EPOCH>2024-11-20T14:44:51.650880</EPOCH><MEAN_MOTION>14.37715228</MEAN_MOTION><ECCENTRICITY>.0004069</ECCENTRICITY><INCLINATION>86.3931</INCLINATION><RA_OF_ASC_NODE>320.9331</RA_OF_ASC_NODE><ARG_OF_PERICENTER>77.3695</ARG_OF_PERICENTER><MEAN_ANOMALY>282.7957</MEAN_ANOMALY></meanElements><tleParameters><EPHEMERIS_TYPE>0</EPHEMERIS_TYPE><CLASSIFICATION_TYPE>U</CLASSIFICATION_TYPE><NORAD_CAT_ID>25043</NORAD_CAT_ID><ELEMENT_SET_NO>999</ELEMENT_SET_NO><REV_AT_EPOCH>41598</REV_AT_EPOCH><BSTAR>.28627E-3</BSTAR><MEAN_MOTION_DOT>.88E-5</MEAN_MOTION_DOT><MEAN_MOTION_DDOT>0</MEAN_MOTION_DDOT></tleParameters></data></segment></body></omm>
<omm id="CCSDS_OMM_VERS" version="2.0">
<header><CREATION_DATE/><ORIGINATOR/></header><body><segment><metadata><OBJECT_NAME>IRIDIUM 42</OBJECT_NAME><OBJECT_ID>1997-077A</OBJECT_ID><CENTER_NAME>EARTH</CENTER_NAME><REF_FRAME>TEME</REF_FRAME><TIME_SYSTEM>UTC</TIME_SYSTEM><MEAN_ELEMENT_THEORY>SGP4</MEAN_ELEMENT_THEORY></metadata><data><meanElements><EPOCH>2024-11-20T12:08:29.300352</EPOCH><MEAN_MOTION>14.35981427</MEAN_MOTION><ECCENTRICITY>.000298</ECCENTRICITY><INCLINATION>86.3942</INCLINATION><RA_OF_ASC_NODE>326.8921</RA_OF_ASC_NODE><ARG_OF_PERICENTER>87.8856</ARG_OF_PERICENTER><MEAN_ANOMALY>272.2682</MEAN_ANOMALY></meanElements><tleParameters><EPHEMERIS_TYPE>0</EPHEMERIS_TYPE><CLASSIFICATION_TYPE>U</CLASSIFICATION_TYPE><NORAD_CAT_ID>25077</NORAD_CAT_ID><ELEMENT_SET_NO>999</ELEMENT_SET_NO><REV_AT_EPOCH>41124</REV_AT_EPOCH><BSTAR>.26112E-3</BSTAR><MEAN_MOTION_DOT>.777E-5</MEAN_MOTION_DOT><MEAN_MOTION_DDOT>0</MEAN_MOTION_DDOT></tleParameters></data></segment></body></omm>
<omm id="CCSDS_OMM_VERS" version="2.0">
<header><CREATION_DATE/><ORIGINATOR/></header><body><segment><metadata><OBJECT_NAME>IRIDIUM 44</OBJECT_NAME><OBJECT_ID>1997-077B</OBJECT_ID><CENTER_NAME>EARTH</CENTER_NAME><REF_FRAME>TEME</REF_FRAME><TIME_SYSTEM>UTC</TIME_SYSTEM><MEAN_ELEMENT_THEORY>SGP4</MEAN_ELEMENT_THEORY></metadata><data><meanElements><EPOCH>2024-11-20T09:30:58.191840</EPOCH><MEAN_MOTION>14.39845215</MEAN_MOTION><ECCENTRICITY>.0002868</ECCENTRICITY><INCLINATION>86.3921</INCLINATION><RA_OF_ASC_NODE>309.4111</RA_OF_ASC_NODE><ARG_OF_PERICENTER>48.4550</ARG_OF_PERICENTER><MEAN_ANOMALY>311.6895</MEAN_ANOMALY></meanElements><tleParameters><EPHEMERIS_TYPE>0</EPHEMERIS_TYPE><CLASSIFICATION_TYPE>U</CLASSIFICATION_TYPE><NORAD_CAT_ID>25078</NORAD_CAT_ID><ELEMENT_SET_NO>999</ELEMENT_SET_NO><REV_AT_EPOCH>41365</REV_AT_EPOCH><BSTAR>.29001E-3</BSTAR><MEAN_MOTION_DOT>.93E-5</MEAN_MOTION_DOT><MEAN_MOTION_DDOT>0</MEAN_MOTION_DDOT></tleParameters></data></segment></body></omm>
<omm id="CCSDS_OMM_VERS" version="2.0">
<header><CREATION_DATE/><ORIGINATOR/></header><body><segment><metadata><OBJECT_NAME>IRIDIUM 24</OBJECT_NAME><OBJECT_ID>1997-082B</OBJECT_ID><CENTER_NAME>EARTH</CENTER_NAME><REF_FRAME>TEME</REF_FRAME><TIME_SYSTEM>UTC</TIME_SYSTEM><MEAN_ELEMENT_THEORY>SGP4</MEAN_ELEMENT_THEORY></metadata><data><meanElements><EPOCH>2024-11-20T20:15:43.577568</EPOCH><MEAN_MOTION>14.41673994</MEAN_MOTION><ECCENTRICITY>.0013073</ECCENTRICITY><INCLINATION>86.3934</INCLINATION><RA_OF_ASC_NODE>168.6031</RA_OF_ASC_NODE><ARG_OF_PERICENTER>52.3617</ARG_OF_PERICENTER><MEAN_ANOMALY>307.8767</MEAN_ANOMALY></meanElements><tleParameters><EPHEMERIS_TYPE>0</EPHEMERIS_TYPE><CLASSIFICATION_TYPE>U</CLASSIFICATION_TYPE><NORAD_CAT_ID>25105</NORAD_CAT_ID><ELEMENT_SET_NO>999</ELEMENT_SET_NO><REV_AT_EPOCH>41319</REV_AT_EPOCH><BSTAR>.22864E-3</BSTAR><MEAN_MOTION_DOT>.765E-5</MEAN_MOTION_DOT><MEAN_MOTION_DDOT>0</MEAN_MOTION_DDOT></tleParameters></data></segment></body></omm>

</ndm>
