IRIDIUM 36              
1 24967U 97056C   24325.79745702  .00000886  00000+0  29101-3 0  9999
2 24967  86.3957 260.4896 0002294  78.9253 281.2202 14.37235782422281
IRIDIUM 39              
1 25042U 97069D   24325.91566819  .00001316  00000+0  34419-3 0  9999
2 25042  86.3877 300.4361 0015744 284.7438  75.2020 14.48628910418808
IRIDIUM 38              
1 25043U 97069E   24325.61448670  .00000880  00000+0  28627-3 0  9990
2 25043  86.3931 320.9331 0004069  77.3695 282.7957 14.37715228415980
IRIDIUM 42              
1 25077U 97077A   24325.50589468  .00000777  00000+0  26112-3 0  9997
2 25077  86.3942 326.8921 0002980  87.8856 272.2682 14.35981427411242
IRIDIUM 44              
1 25078U 97077B   24325.39650685  .00000930  00000+0  29001-3 0  9996
2 25078  86.3921 309.4111 0002868  48.4550 311.6895 14.39845215413656
IRIDIUM 24              
1 25105U 97082B   24325.84425437  .00000765  00000+0  22864-3 0  9994
2 25105  86.3934 168.6031 0013073  52.3617 307.8767 14.41673994413195
